ONEWEB-0613             
1 56071U 23043AB  23285.54964672  .00000176  00000+0  43302-3 0  9992
2 56071  87.8944  94.0465 0001911  79.2091 280.9254 13.15547482 27761
ONEWEB-0630             
1 56072U 23043AC  23285.54541982  .00000173  00000+0  42493-3 0  9995
2 56072  87.8941  94.0473 0001736  72.8236 287.3084 13.15547887 27753
ONEWEB-0632             
1 56073U 23043AD  23285.54119660  .00000175  00000+0  43134-3 0  9995
2 56073  87.8946  94.0635 0002378  90.0304 270.1099 13.15547721 27753
ONEWEB-0633             
1 56074U 23043AE  23285.53693621  .00000193  00000+0  47770-3 0  9999
2 56074  87.8937  94.0594 0001818  65.0398 295.0921 13.15554619 27733
ONEWEB-0634             
1 56075U 23043AF  23285.51895165  .00000050  00000+0  98525-4 0  9992
2 56075  87.8937  94.0573 0001204  87.6209 272.5059 13.15540434 27722
ONEWEB-0635             
1 56076U 23043AG  23285.51159958 -.00000032  00000+0 -11879-3 0  9994
2 56076  87.8919  94.1322 0002295  91.3430 268.7963 13.15546237 27756
ONEWEB-0636             
1 56077U 23043AH  23285.50315032 -.00000088  00000+0 -26852-3 0  9999
2 56077  87.8925  94.0966 0002161  93.4515 266.6863 13.15545646 27733
ONEWEB-0637             
1 56078U 23043AJ  23285.49892477 -.00000131  00000+0 -38267-3 0  9993
2 56078  87.8951  94.0572 0002069  97.0578 263.0787 13.15545365 27758
